NORAD_CAT_ID,OBJECT_NAME,OBJECT_TYPE,EPOCH,MEAN_MOTION,ECCENTRICITY,INCLINATION,RA_OF_ASC_NODE,ARG_OF_PERICENTER,MEAN_ANOMALY,BSTAR,MEAN_MOTION_DOT,MEAN_MOTION_DDOT,TLE_LINE0,TLE_LINE1,TLE_LINE2,SEMIMAJOR_AXIS,PERIOD,APOGEE,PERIGEE,DECAYED
52452.0,STARLINK-3909,PAYLOAD,2024-07-01 13:23:14,15.08836015,0.0001086,53.2159,314.9238,74.6679,285.4433,0.00024033,3.539e-05,0.0,0 STARLINK-3909,1 52452U 22049B   24183.55780781  .00003539  00000-0  24033-3 0  9999,2 52452  53.2159 314.9238 0001086  74.6679 285.4433 15.08836015119253,6917.893,95.438,540.509,539.006,0.0
52452.0,STARLINK-3909,PAYLOAD,2024-07-01 14:58:37,15.08837539,9.46e-05,53.2142,314.6247,73.5729,286.5367,0.00028175,4.199e-05,0.0,0 STARLINK-3909,1 52452U 22049B   24183.62404676  .00004199  00000-0  28175-3 0  9997,2 52452  53.2142 314.6247 0000946  73.5729 286.5367 15.08837539119104,6917.888,95.438,540.407,539.098,0.0
52452.0,STARLINK-3909,PAYLOAD,2024-07-02 14:49:24,15.08839049,0.0001141,53.2148,310.1644,84.2076,275.9047,0.00012567,1.713e-05,0.0,0 STARLINK-3909,1 52452U 22049B   24184.61764807  .00001713  00000-0  12567-3 0  9999,2 52452  53.2148 310.1644 0001141  84.2076 275.9047 15.08839049119255,6917.883,95.438,540.538,538.959,0.0
52452.0,STARLINK-3909,PAYLOAD,2024-07-02 18:00:10,15.08844189,0.0001244,53.2146,309.5678,83.7119,276.4014,0.00010698,1.415e-05,0.0,0 STARLINK-3909,1 52452U 22049B   24184.75012546  .00001415  00000-0  10698-3 0  9992,2 52452  53.2146 309.5678 0001244  83.7119 276.4014 15.08844189119439,6917.868,95.437,540.593,538.872,0.0
52452.0,STARLINK-3909,PAYLOAD,2024-07-03 13:04:48,15.08839823,0.0001367,53.2166,306.0022,81.4443,278.6704,4.0861e-05,3.62e-06,0.0,0 STARLINK-3909,1 52452U 22049B   24185.54500905  .00000362  00000-0  40861-4 0  9997,2 52452  53.2166 306.0022 0001367  81.4443 278.6704 15.08839823119559,6917.881,95.438,540.692,538.8,0.0
52452.0,STARLINK-3909,PAYLOAD,2024-07-03 14:40:11,15.08840026,0.0001174,53.2169,305.7023,93.9925,266.1202,0.00013756,1.902e-05,0.0,0 STARLINK-3909,1 52452U 22049B   24185.61124867  .00001902  00000-0  13756-3 0  9997,2 52452  53.2169 305.7023 0001174  93.9925 266.1202 15.08840026119404,6917.88,95.438,540.557,538.933,0.0
52452.0,STARLINK-3909,PAYLOAD,2024-07-04 12:55:36,15.08836495,0.0001218,53.2169,301.5394,96.2402,263.8729,0.00013812,1.911e-05,0.0,0 STARLINK-3909,1 52452U 22049B   24186.53861158  .00001911  00000-0  13812-3 0  9993,2 52452  53.2169 301.5394 0001218  96.2402 263.8729 15.08836495119542,6917.891,95.438,540.599,538.914,0.0
52452.0,STARLINK-3909,PAYLOAD,2024-07-05 12:46:22,15.08845584,0.000125,53.2175,297.0805,88.5888,271.5247,0.00018427,2.646e-05,0.0,0 STARLINK-3909,1 52452U 22049B   24187.53220750  .00002646  00000-0  18427-3 0  9994,2 52452  53.2175 297.0805 0001250  88.5888 271.5247 15.08845584119857,6917.863,95.437,540.593,538.864,0.0
52452.0,STARLINK-3909,PAYLOAD,2024-07-05 14:21:45,15.0885079,0.000115,53.2169,296.7837,80.8008,279.3114,0.00016602,2.356e-05,0.0,0 STARLINK-3909,1 52452U 22049B   24187.59844483  .00002356  00000-0  16602-3 0  9996,2 52452  53.2169 296.7837 0001150  80.8008 279.3114 15.08850790119707,6917.847,95.437,540.508,538.917,0.0
52452.0,STARLINK-3909,PAYLOAD,2024-07-05 23:54:05,15.08835986,0.0001072,53.2157,294.9988,83.8578,276.2536,0.00023652,3.478e-05,0.0,0 STARLINK-3909,1 52452U 22049B   24187.99589256  .00003478  00000-0  23652-3 0  9993,2 52452  53.2157 294.9988 0001072  83.8578 276.2536 15.08835986119927,6917.893,95.438,540.499,539.016,0.0
52452.0,STARLINK-3909,PAYLOAD,2024-07-06 14:12:33,15.0883309,0.0001172,53.2179,292.3272,96.7346,263.378,-3.2887e-05,-8.11e-06,0.0,0 STARLINK-3909,1 52452U 22049B   24188.59205470 -.00000811  00000-0 -32887-4 0  9994,2 52452  53.2179 292.3272 0001172  96.7346 263.3780 15.08833090119850,6917.902,95.438,540.577,538.956,0.0
52452.0,STARLINK-3909,PAYLOAD,2024-07-06 17:23:19,15.08840116,0.0001416,53.2191,291.7304,101.1438,258.9713,5.7e-05,6.19e-06,0.0,0 STARLINK-3909,1 52452U 22049B   24188.72453106  .00000619  00000-0  57000-4 0  9998,2 52452  53.2191 291.7304 0001416 101.1438 258.9713 15.08840116119872,6917.88,95.438,540.725,538.765,0.0
52452.0,STARLINK-3909,PAYLOAD,2024-07-06 23:44:52,15.0883125,0.0001632,53.2174,290.5392,87.3603,272.7576,-5.9688e-05,-1.238e-05,0.0,0 STARLINK-3909,1 52452U 22049B   24188.98949760 -.00001238  00000-0 -59688-4 0  9996,2 52452  53.2174 290.5392 0001632  87.3603 272.7576 15.08831250120070,6917.907,95.438,540.901,538.643,0.0
52452.0,STARLINK-3909,PAYLOAD,2024-07-07 10:52:34,15.08839503,0.0001219,53.2168,288.4584,95.3507,264.7624,1.6778e-05,-2.1e-07,0.0,0 STARLINK-3909,1 52452U 22049B   24189.45317298 -.00000021  00000-0  16778-4 0  9995,2 52452  53.2168 288.4584 0001219  95.3507 264.7624 15.08839503120147,6917.882,95.438,540.59,538.904,0.0
52452.0,STARLINK-3909,PAYLOAD,2024-07-08 12:18:44,15.08844138,0.0001358,53.2171,283.7005,92.2397,267.8751,0.00017663,2.525e-05,0.0,0 STARLINK-3909,1 52452U 22049B   24190.51301291  .00002525  00000-0  17663-3 0  9993,2 52452  53.2171 283.7005 0001358  92.2397 267.8751 15.08844138120307,6917.868,95.437,540.672,538.793,0.0
52452.0,STARLINK-3909,PAYLOAD,2024-07-09 12:09:31,15.08842612,0.000123,53.2147,279.2388,87.188,272.9253,8.8876e-05,1.127e-05,0.0,0 STARLINK-3909,1 52452U 22049B   24191.50661261  .00001127  00000-0  88876-4 0  9991,2 52452  53.2147 279.2388 0001230  87.1880 272.9253 15.08842612120290,6917.872,95.437,540.588,538.887,0.0
52452.0,STARLINK-3909,PAYLOAD,2024-07-10 12:00:18,15.08840198,0.0001224,53.2131,274.7781,82.3256,277.7875,2.3612e-05,8.8e-07,0.0,0 STARLINK-3909,1 52452U 22049B   24192.50021586  .00000088  00000-0  23612-4 0  9994,2 52452  53.2131 274.7781 0001224  82.3256 277.7875 15.08840198120602,6917.88,95.438,540.592,538.898,0.0
52452.0,STARLINK-3909,PAYLOAD,2024-07-11 11:51:05,15.0884713,0.0001312,53.2159,270.318,95.8219,264.2923,0.00015642,2.203e-05,0.0,0 STARLINK-3909,1 52452U 22049B   24193.49381334  .00002203  00000-0  15642-3 0  9997,2 52452  53.2159 270.3180 0001312  95.8219 264.2923 15.08847130120599,6917.859,95.437,540.631,538.816,0.0
52452.0,STARLINK-3909,PAYLOAD,2024-07-12 05:20:20,15.08842078,0.0001456,53.2165,267.0486,97.5662,262.5496,0.00011908,1.608e-05,0.0,0 STARLINK-3909,1 52452U 22049B   24194.22245595  .00001608  00000-0  11908-3 0  9996,2 52452  53.2165 267.0486 0001456  97.5662 262.5496 15.08842078120860,6917.874,95.437,540.746,538.732,0.0
52452.0,STARLINK-3909,PAYLOAD,2024-07-12 11:41:52,15.0884339,0.0001424,53.2163,265.8601,93.6533,266.4622,0.00010886,1.445e-05,0.0,0 STARLINK-3909,1 52452U 22049B   24194.48741494  .00001445  00000-0  10886-3 0  9996,2 52452  53.2163 265.8601 0001424  93.6533 266.4622 15.08843390120741,6917.87,95.437,540.72,538.75,0.0
52452.0,STARLINK-3909,PAYLOAD,2024-07-12 21:14:11,15.08841232,0.0001272,53.2147,264.0728,87.0481,273.0657,6.0791e-05,6.8e-06,0.0,0 STARLINK-3909,1 52452U 22049B   24194.88485519  .00000680  00000-0  60791-4 0  9994,2 52452  53.2147 264.0728 0001272  87.0481 273.0657 15.08841232120806,6917.877,95.437,540.622,538.862,0.0
52452.0,STARLINK-3909,PAYLOAD,2024-07-13 05:11:08,15.08808267,0.0001697,53.2166,262.584,101.5604,258.5579,0.00042639,6.499e-05,0.0,0 STARLINK-3909,1 52452U 22049B   24195.21606615  .00006499  00000-0  42639-3 0  9998,2 52452  53.2166 262.5840 0001697 101.5604 258.5579 15.08808267121011,6917.977,95.44,541.016,538.668,0.0
52452.0,STARLINK-3909,PAYLOAD,2024-07-13 11:32:39,15.08843922,0.0001346,53.2165,261.3981,93.8321,266.2825,4.337e-05,4.02e-06,0.0,0 STARLINK-3909,1 52452U 22049B   24195.48101515  .00000402  00000-0  43370-4 0  9998,2 52452  53.2165 261.3981 0001346  93.8321 266.2825 15.08843922121054,6917.868,95.437,540.665,538.802,0.0
52452.0,STARLINK-3909,PAYLOAD,2024-07-13 21:04:58,15.08842466,0.0001325,53.2165,259.6137,90.2628,269.8516,7.6231e-05,9.26e-06,0.0,0 STARLINK-3909,1 52452U 22049B   24195.87845598  .00000926  00000-0  76231-4 0  9990,2 52452  53.2165 259.6137 0001325  90.2628 269.8516 15.08842466120951,6917.873,95.437,540.654,538.821,0.0
52452.0,STARLINK-3909,PAYLOAD,2024-07-14 05:01:54,15.08835454,0.0001433,53.2166,258.1273,98.2628,261.8527,4.7044e-05,4.61e-06,0.0,0 STARLINK-3909,1 52452U 22049B   24196.20966165  .00000461  00000-0  47044-4 0  9996,2 52452  53.2166 258.1273 0001433  98.2628 261.8527 15.08835454121162,6917.894,95.438,540.751,538.768,0.0
52452.0,STARLINK-3909,PAYLOAD,2024-07-14 11:23:27,15.08838865,0.0001433,53.2165,256.9382,99.8946,260.2208,7.8197e-05,9.57e-06,0.0,0 STARLINK-3909,1 52452U 22049B   24196.47461965  .00000957  00000-0  78197-4 0  9996,2 52452  53.2165 256.9382 0001433  99.8946 260.2208 15.08838865121043,6917.884,95.438,540.74,538.758,0.0
52452.0,STARLINK-3909,PAYLOAD,2024-07-14 20:55:45,15.0883993,0.0001367,53.2163,255.1541,95.0482,265.0666,6.2713e-05,7.1e-06,0.0,0 STARLINK-3909,1 52452U 22049B   24196.87206002  .00000710  00000-0  62713-4 0  9993,2 52452  53.2163 255.1541 0001367  95.0482 265.0666 15.08839930121100,6917.881,95.438,540.691,538.8,0.0
52452.0,STARLINK-3909,PAYLOAD,2024-07-15 11:14:14,15.08841588,0.0001284,53.2155,252.4771,92.3619,267.752,9.1695e-05,1.172e-05,0.0,0 STARLINK-3909,1 52452U 22049B   24197.46822020  .00001172  00000-0  91695-4 0  9997,2 52452  53.2155 252.4771 0001284  92.3619 267.7520 15.08841588121353,6917.876,95.437,540.629,538.852,0.0
52452.0,STARLINK-3909,PAYLOAD,2024-07-15 20:46:33,15.08841439,0.0001295,53.2155,250.6927,91.7764,268.3377,8.6319e-05,1.086e-05,0.0,0 STARLINK-3909,1 52452U 22049B   24197.86565994  .00001086  00000-0  86319-4 0  9996,2 52452  53.2155 250.6927 0001295  91.7764 268.3377 15.08841439121253,6917.876,95.437,540.637,538.845,0.0
52452.0,STARLINK-3909,PAYLOAD,2024-07-16 11:05:01,15.08845206,0.0001318,53.2154,248.0158,89.1723,270.942,0.00012128,1.643e-05,0.0,0 STARLINK-3909,1 52452U 22049B   24198.46181747  .00001643  00000-0  12128-3 0  9998,2 52452  53.2154 248.0158 0001318  89.1723 270.9420 15.08845206121345,6917.864,95.437,540.641,538.818,0.0
